OBJECT_NAME,OBJECT_ID,EPOCH,MEAN_MOTION,ECCENTRICITY,INCLINATION,RA_OF_ASC_NODE,ARG_OF_PERICENTER,MEAN_ANOMALY,EPHEMERIS_TYPE,CLASSIFICATION_TYPE,NORAD_CAT_ID,ELEMENT_SET_NO,REV_AT_EPOCH,BSTAR,MEAN_MOTION_DOT,MEAN_MOTION_DDOT
ALOS-2,2014-029A,2026-07-06T19:41:16.797984,14.79470205,.0001582,97.9223,284.7036,91.8245,268.3148,0,U,39766,999,65448,.24289E-3,.1763E-4,0
KAZEOSAT 2,2014-033A,2026-07-06T19:57:43.237152,14.85493922,.0007067,97.5397,26.4045,252.9890,107.0551,0,U,40010,999,65187,.10801E-3,.882E-5,0
HODOYOSHI-4,2014-033B,2026-07-06T19:15:26.203104,14.88179209,.0022133,97.5458,11.6785,238.9140,120.9905,0,U,40011,999,65172,.27766E-3,.2518E-4,0
DEIMOS-2,2014-033D,2026-07-06T19:26:57.821280,14.93788355,.0001118,97.5801,61.6075,83.2384,276.8963,0,U,40013,999,64065,.27977E-3,.2912E-4,0
HODOYOSHI-3,2014-033F,2026-07-06T17:17:10.541760,14.85426389,.0031388,97.6437,349.9768,291.2054,68.5809,0,U,40015,999,65052,.11048E-3,.907E-5,0
SPOT 7,2014-034A,2026-07-06T20:06:27.475200,14.60976668,.0001492,98.0613,249.8227,97.9776,262.1594,0,U,40053,999,64000,.10629E-3,.476E-5,0
SKYSAT-B,2014-037D,2026-07-06T08:33:26.320896,14.88077956,.00048378,98.3848,147.4157,202.7715,157.3286,0,U,40072,999,64881,.15917632E-3,.1402E-4,0
WORLDVIEW-3 (WV-3),2014-048A,2026-07-06T20:12:47.482272,14.85054952,.0000631,97.8560,262.4034,167.1098,193.0133,0,U,40115,999,64482,.95998E-4,.766E-5,0
GAOFEN-2,2014-049A,2026-07-06T20:07:18.441696,14.80920964,.0007615,98.0095,252.0264,158.9929,201.1598,0,U,40118,999,64214,.40295E-4,.258E-5,0
YAOGAN-21,2014-053A,2026-07-06T21:26:33.739584,15.26680073,.0008775,97.1465,227.2847,35.7468,324.4357,0,U,40143,999,65796,.1621E-3,.4188E-4,0
YAOGAN-22,2014-063A,2026-07-06T10:14:18.515616,13.15531488,.0006734,100.7750,339.0212,143.4887,216.6685,0,U,40275,999,56234,.45419E-4,-.3E-6,0
ASNARO,2014-070A,2026-07-06T20:21:43.417152,15.19744298,.0006818,97.3441,263.4331,109.9358,250.2612,0,U,40298,999,64699,.2439E-3,.515E-4,0
YAOGAN-24,2014-072A,2026-07-06T21:00:16.096320,14.76112486,.0013896,98.1518,325.3804,196.6544,163.4211,0,U,40310,999,62662,.15482E-3,.1017E-4,0
CBERS 4,2014-079A,2026-07-06T19:58:50.419200,14.35514513,.0001141,98.3516,244.0471,50.5122,309.6165,0,U,40336,999,60677,.34405E-4,.57E-6,0
YAOGAN-26,2014-088A,2026-07-06T20:27:52.340832,15.48186672,.0003163,97.0650,187.6105,19.6087,340.5285,0,U,40362,999,64074,.26018E-3,.13605E-3,0
SMAP,2015-003A,2026-07-06T20:10:23.088000,14.63384117,.0001532,98.1278,194.6568,97.4391,262.6985,0,U,40376,999,61049,.81176E-4,.373E-5,0
KOMPSAT-3A,2015-014A,2026-07-06T21:00:43.917120,15.55061141,.0056944,97.6895,180.6912,104.8556,255.9014,0,U,40536,999,62487,.36217E-3,.26093E-3,0
SENTINEL-2A,2015-028A,2026-07-06T20:45:38.965248,14.30821162,.0001223,98.5674,262.4372,95.0501,265.0822,0,U,40697,999,57654,.36123E-4,.51E-6,0
GAOFEN-8,2015-030A,2026-07-06T19:48:03.907008,15.46718866,.0009754,97.6903,22.3831,121.1770,239.0436,0,U,40701,999,61448,.4015E-3,.20037E-3,0
CARBONITE 1 (CBNT-1),2015-032D,2026-07-06T19:24:42.033312,14.83652028,.0013227,97.6523,5.0548,226.4128,133.5989,0,U,40718,999,59225,.17625E-3,.1406E-4,0
YAOGAN-27,2015-040A,2026-07-06T20:52:47.249184,13.16070449,.0008308,100.1166,173.3990,163.7220,196.4162,0,U,40878,999,52025,.10489E-3,-.3E-7,0
GAOFEN-9 01,2015-047A,2026-07-06T19:59:57.552000,14.82923633,.0028827,97.6266,222.6347,76.6169,283.8257,0,U,40894,999,58310,.12215E-3,.947E-5,0
YAOGAN-28,2015-064A,2026-07-06T20:15:04.548960,15.27685646,.0011941,97.3098,325.7107,118.9452,241.2986,0,U,41026,999,59368,.22191E-3,.5942E-4,0
YAOGAN-29,2015-069A,2026-07-06T21:04:52.691232,14.83100194,.0001396,98.0019,216.5413,23.2235,336.9041,0,U,41038,999,57354,-.15341E-4,-.179E-5,0
KENT RIDGE 1,2015-077B,2026-07-06T03:41:14.348256,15.23248161,.000817,14.9788,124.9172,147.4678,212.6148,0,U,41167,999,58399,.14127E-3,.4216E-4,0
GAOFEN-4,2015-083A,2026-07-06T19:38:45.176352,1.00272906,.0004256,0.4049,83.8626,118.1427,123.1868,0,U,41194,999,3872,0,-.32E-5,0
JASON-3,2016-002A,2026-07-06T21:16:13.003104,12.87628161,.0008275,66.0418,84.4215,271.5801,88.4270,0,U,41240,999,48978,.10954E-3,-.35E-6,0
SENTINEL-3A,2016-011A,2026-07-06T20:28:13.526976,14.26738142,.000141,98.6240,254.9533,92.8083,267.3259,0,U,41335,999,54086,.49658E-4,.77E-6,0
ZIYUAN 3-02 (ZY 3-02),2016-033A,2026-07-06T20:33:41.053824,15.21378960,.0013229,97.3826,263.2528,214.9292,145.1077,0,U,41556,999,56097,.19436E-3,.4298E-4,0
CARTOSAT-2C,2016-040A,2026-07-06T19:40:38.197056,15.19222067,.0010123,97.4467,247.5268,70.1533,290.0792,0,U,41599,999,55669,.16843E-3,.3483E-4,0
SKYSAT-C1,2016-040C,2026-07-06T14:58:56.636832,15.36647042,.0001234,96.9556,218.2931,14.2930,345.8350,0,U,41601,999,56085,.2164E-3,.7669E-4,0
