ALOS-2                  
1 39766U 14029A   26187.82033331  .00001763  00000+0  24289-3 0  9998
2 39766  97.9223 284.7036 0001582  91.8245 268.3148 14.79470205654488
KAZEOSAT 2              
1 40010U 14033A   26187.83175043  .00000882  00000+0  10801-3 0  9991
2 40010  97.5397  26.4045 0007067 252.9890 107.0551 14.85493922651876
HODOYOSHI-4             
1 40011U 14033B   26187.80238661  .00002518  00000+0  27766-3 0  9991
2 40011  97.5458  11.6785 0022133 238.9140 120.9905 14.88179209651728
DEIMOS-2                
1 40013U 14033D   26187.81039145  .00002912  00000+0  27977-3 0  9992
2 40013  97.5801  61.6075 0001118  83.2384 276.8963 14.93788355640659
HODOYOSHI-3             
1 40015U 14033F   26187.72026090  .00000907  00000+0  11048-3 0  9993
2 40015  97.6437 349.9768 0031388 291.2054  68.5809 14.85426389650524
SPOT 7                  
1 40053U 14034A   26187.83781800  .00000476  00000+0  10629-3 0  9990
2 40053  98.0613 249.8227 0001492  97.9776 262.1594 14.60976668640008
SKYSAT-B                
1 40072U 14037D   26187.35655464  .00001402  00000+0  15918-3 0  9993
2 40072  98.3848 147.4157 0004837 202.7715 157.3286 14.88077956648814
WORLDVIEW-3 (WV-3)      
1 40115U 14048A   26187.84221623  .00000766  00000+0  95998-4 0  9992
2 40115  97.8560 262.4034 0000631 167.1098 193.0133 14.85054952644828
GAOFEN-2                
1 40118U 14049A   26187.83840789  .00000258  00000+0  40295-4 0  9991
2 40118  98.0095 252.0264 0007615 158.9929 201.1598 14.80920964642146
YAOGAN-21               
1 40143U 14053A   26187.89344606  .00004188  00000+0  16210-3 0  9992
2 40143  97.1465 227.2847 0008775  35.7468 324.4357 15.26680073657967
YAOGAN-22               
1 40275U 14063A   26187.42660319 -.00000030  00000+0  45419-4 0  9997
2 40275 100.7750 339.0212 0006734 143.4887 216.6685 13.15531488562348
ASNARO                  
1 40298U 14070A   26187.84841918  .00005150  00000+0  24390-3 0  9993
2 40298  97.3441 263.4331 0006818 109.9358 250.2612 15.19744298646995
YAOGAN-24               
1 40310U 14072A   26187.87518630  .00001017  00000+0  15482-3 0  9995
2 40310  98.1518 325.3804 0013896 196.6544 163.4211 14.76112486626629
CBERS 4                 
1 40336U 14079A   26187.83252800  .00000057  00000+0  34405-4 0  9990
2 40336  98.3516 244.0471 0001141  50.5122 309.6165 14.35514513606772
YAOGAN-26               
1 40362U 14088A   26187.85268913  .00013605  00000+0  26018-3 0  9996
2 40362  97.0650 187.6105 0003163  19.6087 340.5285 15.48186672640742
SMAP                    
1 40376U 15003A   26187.84054500  .00000373  00000+0  81176-4 0  9998
2 40376  98.1278 194.6568 0001532  97.4391 262.6985 14.63384117610496
KOMPSAT-3A              
1 40536U 15014A   26187.87550830  .00026093  00000+0  36217-3 0  9990
2 40536  97.6895 180.6912 0056944 104.8556 255.9014 15.55061141624870
SENTINEL-2A             
1 40697U 15028A   26187.86503432  .00000051  00000+0  36123-4 0  9991
2 40697  98.5674 262.4372 0001223  95.0501 265.0822 14.30821162576541
GAOFEN-8                
1 40701U 15030A   26187.82504522  .00020037  00000+0  40150-3 0  9997
2 40701  97.6903  22.3831 0009754 121.1770 239.0436 15.46718866614483
CARBONITE 1 (CBNT-1)    
1 40718U 15032D   26187.80881983  .00001406  00000+0  17625-3 0  9994
2 40718  97.6523   5.0548 0013227 226.4128 133.5989 14.83652028592256
YAOGAN-27               
1 40878U 15040A   26187.86999131 -.00000003  00000+0  10489-3 0  9995
2 40878 100.1166 173.3990 0008308 163.7220 196.4162 13.16070449520254
GAOFEN-9 01             
1 40894U 15047A   26187.83330500  .00000947  00000+0  12215-3 0  9991
2 40894  97.6266 222.6347 0028827  76.6169 283.8257 14.82923633583104
YAOGAN-28               
1 41026U 15064A   26187.84380265  .00005942  00000+0  22191-3 0  9996
2 41026  97.3098 325.7107 0011941 118.9452 241.2986 15.27685646593685
YAOGAN-29               
1 41038U 15069A   26187.87838763 -.00000179  00000+0 -15341-4 0  9997
2 41038  98.0019 216.5413 0001396  23.2235 336.9041 14.83100194573544
KENT RIDGE 1            
1 41167U 15077B   26187.15363829  .00004216  00000+0  14127-3 0  9990
2 41167  14.9788 124.9172 0008170 147.4678 212.6148 15.23248161583998
GAOFEN-4                
1 41194U 15083A   26187.81857843 -.00000320  00000+0  00000+0 0  9998
2 41194   0.4049  83.8626 0004256 118.1427 123.1868  1.00272906 38728
JASON-3                 
1 41240U 16002A   26187.88626161 -.00000035  00000+0  10954-3 0  9992
2 41240  66.0418  84.4215 0008275 271.5801  88.4270 12.87628161489785
SENTINEL-3A             
1 41335U 16011A   26187.85293434  .00000077  00000+0  49658-4 0  9996
2 41335  98.6240 254.9533 0001410  92.8083 267.3259 14.26738142540869
ZIYUAN 3-02 (ZY 3-02)   
1 41556U 16033A   26187.85672516  .00004298  00000+0  19436-3 0  9996
2 41556  97.3826 263.2528 0013229 214.9292 145.1077 15.21378960560976
CARTOSAT-2C             
1 41599U 16040A   26187.81988654  .00003483  00000+0  16843-3 0  9994
2 41599  97.4467 247.5268 0010123  70.1533 290.0792 15.19222067556692
SKYSAT-C1               
1 41601U 16040C   26187.62426663  .00007669  00000+0  21640-3 0  9995
2 41601  96.9556 218.2931 0001234  14.2930 345.8350 15.36647042560859
